{
  "type": "FeatureCollection",
  "features": [
    {
      "type": "Feature",
      "properties": {
        "norad_id": 66863,
        "name": "STARLINK-36134",
        "group": "last-30-days",
        "lat": 39.05078031493427,
        "lon": -147.23127833831023,
        "alt_km": 331.87915692287424,
        "timestamp": "2025-12-17T10:52:53.101505+00:00",
        "meta_object_name": "STARLINK-36134",
        "meta_object_id": "2025-281R",
        "meta_epoch": "2025-12-16T22:00:03.000096",
        "meta_mean_motion": 15.7939473,
        "meta_eccentricity": 0.00014572,
        "meta_inclination": 43.0009,
        "meta_ra_of_asc_node": 96.5675,
        "meta_arg_of_pericenter": 277.7237,
        "meta_mean_anomaly": 21.0754,
        "meta_ephemeris_type": 0,
        "meta_classification_type": "U",
        "meta_norad_cat_id": 66863,
        "meta_element_set_no": 999,
        "meta_rev_at_epoch": 207,
        "meta_bstar": -0.0086873047,
        "meta_mean_motion_dot": -0.01436409,
        "meta_mean_motion_ddot": 0,
        "tle_line1": "1 66863U 25281R   25350.91670139 -.01436409  00000+0 -86873-2 0  9990",
        "tle_line2": "2 66863  43.0009  96.5675 0001457 277.7237  21.0754 15.79394730  2073"
      },
      "geometry": {
        "type": "Point",
        "coordinates": [
          -147.23127833831023,
          39.05078031493427
        ]
      }
    },
    {
      "type": "Feature",
      "properties": {
        "norad_id": 66864,
        "name": "STARLINK-36070",
        "group": "last-30-days",
        "lat": 38.2759658836761,
        "lon": -144.5745185958719,
        "alt_km": 332.2322416329598,
        "timestamp": "2025-12-17T10:52:53.101516+00:00",
        "meta_object_name": "STARLINK-36070",
        "meta_object_id": "2025-281S",
        "meta_epoch": "2025-12-16T22:00:03.000096",
        "meta_mean_motion": 15.79330772,
        "meta_eccentricity": 0.0001553,
        "meta_inclination": 43.0007,
        "meta_ra_of_asc_node": 96.5614,
        "meta_arg_of_pericenter": 276.2541,
        "meta_mean_anomaly": 24.8864,
        "meta_ephemeris_type": 0,
        "meta_classification_type": "U",
        "meta_norad_cat_id": 66864,
        "meta_element_set_no": 999,
        "meta_rev_at_epoch": 210,
        "meta_bstar": -0.0087126864,
        "meta_mean_motion_dot": -0.01436436,
        "meta_mean_motion_ddot": 0,
        "tle_line1": "1 66864U 25281S   25350.91670139 -.01436436  00000+0 -87127-2 0  9994",
        "tle_line2": "2 66864  43.0007  96.5614 0001553 276.2541  24.8864 15.79330772  2107"
      },
      "geometry": {
        "type": "Point",
        "coordinates": [
          -144.5745185958719,
          38.2759658836761
        ]
      }
    },
    {
      "type": "Feature",
      "properties": {
        "norad_id": 66865,
        "name": "STARLINK-36117",
        "group": "last-30-days",
        "lat": 36.51196882658525,
        "lon": -139.32271866871696,
        "alt_km": 333.21894055818575,
        "timestamp": "2025-12-17T10:52:53.101526+00:00",
        "meta_object_name": "STARLINK-36117",
        "meta_object_id": "2025-281T",
        "meta_epoch": "2025-12-16T22:00:03.000096",
        "meta_mean_motion": 15.79194146,
        "meta_eccentricity": 0.00016516,
        "meta_inclination": 43.001,
        "meta_ra_of_asc_node": 96.5494,
        "meta_arg_of_pericenter": 276.9889,
        "meta_mean_anomaly": 29.0409,
        "meta_ephemeris_type": 0,
        "meta_classification_type": "U",
        "meta_norad_cat_id": 66865,
        "meta_element_set_no": 999,
        "meta_rev_at_epoch": 207,
        "meta_bstar": -0.0092681289,
        "meta_mean_motion_dot": -0.01508611,
        "meta_mean_motion_ddot": 0,
        "tle_line1": "1 66865U 25281T   25350.91670139 -.01508611  00000+0 -92681-2 0  9991",
        "tle_line2": "2 66865  43.0010  96.5494 0001651 276.9889  29.0409 15.79194146  2070"
      },
      "geometry": {
        "type": "Point",
        "coordinates": [
          -139.32271866871696,
          36.51196882658525
        ]
      }
    },
    {
      "type": "Feature",
      "properties": {
        "norad_id": 66866,
        "name": "STARLINK-36126",
        "group": "last-30-days",
        "lat": 35.607462315665906,
        "lon": -136.94669568167927,
        "alt_km": 333.5138782117547,
        "timestamp": "2025-12-17T10:52:53.101538+00:00",
        "meta_object_name": "STARLINK-36126",
        "meta_object_id": "2025-281U",
        "meta_epoch": "2025-12-16T22:00:03.000096",
        "meta_mean_motion": 15.79149095,
        "meta_eccentricity": 0.0001595,
        "meta_inclination": 43.0009,
        "meta_ra_of_asc_node": 96.5439,
        "meta_arg_of_pericenter": 272.6831,
        "meta_mean_anomaly": 35.5994,
        "meta_ephemeris_type": 0,
        "meta_classification_type": "U",
        "meta_norad_cat_id": 66866,
        "meta_element_set_no": 999,
        "meta_rev_at_epoch": 210,
        "meta_bstar": -0.009500635,
        "meta_mean_motion_dot": -0.01538919,
        "meta_mean_motion_ddot": 0,
        "tle_line1": "1 66866U 25281U   25350.91670139 -.01538919  00000+0 -95006-2 0  9990",
        "tle_line2": "2 66866  43.0009  96.5439 0001595 272.6831  35.5994 15.79149095  2103"
      },
      "geometry": {
        "type": "Point",
        "coordinates": [
          -136.94669568167927,
          35.607462315665906
        ]
      }
    },
    {
      "type": "Feature",
      "properties": {
        "norad_id": 66867,
        "name": "STARLINK-36101",
        "group": "last-30-days",
        "lat": 34.57588042531157,
        "lon": -134.4336320834471,
        "alt_km": 334.1504378436157,
        "timestamp": "2025-12-17T10:52:53.101548+00:00",
        "meta_object_name": "STARLINK-36101",
        "meta_object_id": "2025-281V",
        "meta_epoch": "2025-12-16T22:00:03.000096",
        "meta_mean_motion": 15.79027981,
        "meta_eccentricity": 0.00015954,
        "meta_inclination": 43.001,
        "meta_ra_of_asc_node": 96.5374,
        "meta_arg_of_pericenter": 273.5926,
        "meta_mean_anomaly": 37.2734,
        "meta_ephemeris_type": 0,
        "meta_classification_type": "U",
        "meta_norad_cat_id": 66867,
        "meta_element_set_no": 999,
        "meta_rev_at_epoch": 191,
        "meta_bstar": -0.0098107617,
        "meta_mean_motion_dot": -0.01575045,
        "meta_mean_motion_ddot": 0,
        "tle_line1": "1 66867U 25281V   25350.91670139 -.01575045  00000+0 -98108-2 0  9998",
        "tle_line2": "2 66867  43.0010  96.5374 0001595 273.5926  37.2734 15.79027981  1917"
      },
      "geometry": {
        "type": "Point",
        "coordinates": [
          -134.4336320834471,
          34.57588042531157
        ]
      }
    },
    {
      "type": "Feature",
      "properties": {
        "norad_id": 66868,
        "name": "STARLINK-36108",
        "group": "last-30-days",
        "lat": 33.48499278269971,
        "lon": -131.96539177015873,
        "alt_km": 334.8788268416456,
        "timestamp": "2025-12-17T10:52:53.101562+00:00",
        "meta_object_name": "STARLINK-36108",
        "meta_object_id": "2025-281W",
        "meta_epoch": "2025-12-16T22:00:03.000096",
        "meta_mean_motion": 15.78866935,
        "meta_eccentricity": 0.00018143,
        "meta_inclination": 43.0009,
        "meta_ra_of_asc_node": 96.5302,
        "meta_arg_of_pericenter": 268.5033,
        "meta_mean_anomaly": 45.0212,
        "meta_ephemeris_type": 0,
        "meta_classification_type": "U",
        "meta_norad_cat_id": 66868,
        "meta_element_set_no": 999,
        "meta_rev_at_epoch": 191,
        "meta_bstar": -0.01000493,
        "meta_mean_motion_dot": -0.01592051,
        "meta_mean_motion_ddot": 0,
        "tle_line1": "1 66868U 25281W   25350.91670139 -.01592051  00000+0 -10005-1 0  9994",
        "tle_line2": "2 66868  43.0009  96.5302 0001814 268.5033  45.0212 15.78866935  1911"
      },
      "geometry": {
        "type": "Point",
        "coordinates": [
          -131.96539177015873,
          33.48499278269971
        ]
      }
    },
    {
      "type": "Feature",
      "properties": {
        "norad_id": 66869,
        "name": "STARLINK-36092",
        "group": "last-30-days",
        "lat": 32.43596018943707,
        "lon": -129.74287237565477,
        "alt_km": 335.4114241850557,
        "timestamp": "2025-12-17T10:52:53.101574+00:00",
        "meta_object_name": "STARLINK-36092",
        "meta_object_id": "2025-281X",
        "meta_epoch": "2025-12-16T22:00:03.000096",
        "meta_mean_motion": 15.78771178,
        "meta_eccentricity": 0.0001749,
        "meta_inclination": 43.001,
        "meta_ra_of_asc_node": 96.5246,
        "meta_arg_of_pericenter": 276.1459,
        "meta_mean_anomaly": 39.7162,
        "meta_ephemeris_type": 0,
        "meta_classification_type": "U",
        "meta_norad_cat_id": 66869,
        "meta_element_set_no": 999,
        "meta_rev_at_epoch": 210,
        "meta_bstar": -0.010128894,
        "meta_mean_motion_dot": -0.01603,
        "meta_mean_motion_ddot": 0,
        "tle_line1": "1 66869U 25281X   25350.91670139 -.01603000  00000+0 -10129-1 0  9999",
        "tle_line2": "2 66869  43.0010  96.5246 0001749 276.1459  39.7162 15.78771178  2105"
      },
      "geometry": {
        "type": "Point",
        "coordinates": [
          -129.74287237565477,
          32.43596018943707
        ]
      }
    }
  ]
}